STARLINK-1289           
1 45391U 20019AH  22230.69421275  .00001624  00000+0  12789-3 0  9991
2 45391  53.0545 218.0333 0001426  73.9069 286.2077 15.06402098133940
STARLINK-1290           
1 45392U 20019AJ  22230.65093356  .00012991  00000+0  69053-3 0  9998
2 45392  52.9930 203.2858 0000240 110.8378 249.2640 15.15611396134097
STARLINK-1291           
1 45393U 20019AK  22230.65829962  .00000972  00000+0  84141-4 0  9991
2 45393  53.0542 218.1964 0001706  74.3012 285.8165 15.06406640133977
STARLINK-1292           
1 45394U 20019AL  22230.68779012  .00000620  00000+0  60495-4 0  9991
2 45394  53.0547 218.0770 0001444  76.9666 283.1484 15.06408234133953
STARLINK-1297           
1 45395U 20019AM  22231.18170467  .00000659  00000+0  63153-4 0  9993
2 45395  53.0524 215.8405 0001464  45.7714 314.3395 15.06393942134058
STARLINK-1303           
1 45396U 20019AN  22230.69884337  .00002511  00000+0  18735-3 0  9991
2 45396  53.0538 218.0089 0001631  79.5545 280.5628 15.06409090133931
STARLINK-1307           
1 45397U 20019AP  22231.17432867  .00002347  00000+0  17639-3 0  9992
2 45397  53.0538 215.8679 0001621  83.5270 276.5904 15.06405595134110
STARLINK-1312           
1 45398U 20019AQ  22231.23329591  .00002467  00000+0  18444-3 0  9997
2 45398  53.0552 215.6122 0001356  84.6369 275.4775 15.06406167134057
STARLINK-1255           
1 45399U 20019AR  22231.20842424  .00000678  00000+0  64437-4 0  9996
2 45399  53.0539 205.7145 0001742  68.4618 291.6556 15.06403817134241
STARLINK-1213           
1 45400U 20019AS  22231.22316565  .00001030  00000+0  88015-4 0  9994
2 45400  53.0543 205.6583 0001447  72.4297 287.6850 15.06409066134170
STARLINK-1256           
1 45401U 20019AT  22231.21948833  .00000443  00000+0  48607-4 0  9993
2 45401  53.0544 205.6862 0001562  63.6037 296.5112 15.06398415134247
STARLINK-1257           
1 45402U 20019AU  22231.21484911  .00002156  00000+0  16357-3 0  9995
2 45402  53.0533 205.6878 0001630  70.8532 289.2633 15.06409798134243
STARLINK-1259           
1 45403U 20019AV  22231.23053265  .00001029  00000+0  87978-4 0  9998
2 45403  53.0526 205.6228 0001561  72.8338 287.2822 15.06403699134246
STARLINK-1260           
1 45404U 20019AW  22231.17525201  .00001459  00000+0  11681-3 0  9990
2 45404  53.0539 205.8846 0001848  70.7837 289.3352 15.06398666134145
STARLINK-1263           
1 45405U 20019AX  22230.62973498  .00000719  00000+0  67189-4 0  9998
2 45405  53.0554 208.3351 0001514  75.0724 285.0432 15.06398432134069
STARLINK-1265           
1 45406U 20019AY  22230.63710136  .00000525  00000+0  54130-4 0  9995
2 45406  53.0546 208.2816 0001807  68.8042 291.3140 15.06405929134060
STARLINK-1275           
1 45407U 20019AZ  22230.31917245  .00000829  00000+0  74530-4 0  9994
2 45407  53.0532 209.7294 0001531  74.8723 285.2435 15.06401731134010
