[{"OBJECT_NAME":"STARLINK-1289","OBJECT_ID":"2020-019AH","EPOCH":"2022-08-18T16:39:39.981600","MEAN_MOTION":15.06402098,"ECCENTRICITY":0.0001426,"INCLINATION":53.0545,"RA_OF_ASC_NODE":218.0333,"ARG_OF_PERICENTER":73.9069,"MEAN_ANOMALY":286.2077,"EPHEMERIS_TYPE":0,"CLASSIFICATION_TYPE":"U","NORAD_CAT_ID":45391,"ELEMENT_SET_NO":999,"REV_AT_EPOCH":13394,"BSTAR":0.00012789,"MEAN_MOTION_DOT":1.624e-5,"MEAN_MOTION_DDOT":0},{"OBJECT_NAME":"STARLINK-1290","OBJECT_ID":"2020-019AJ","EPOCH":"2022-08-18T15:37:20.659584","MEAN_MOTION":15.15611396,"ECCENTRICITY":2.4e-5,"INCLINATION":52.993,"RA_OF_ASC_NODE":203.2858,"ARG_OF_PERICENTER":110.8378,"MEAN_ANOMALY":249.264,"EPHEMERIS_TYPE":0,"CLASSIFICATION_TYPE":"U","NORAD_CAT_ID":45392,"ELEMENT_SET_NO":999,"REV_AT_EPOCH":13409,"BSTAR":0.00069053,"MEAN_MOTION_DOT":0.00012991,"MEAN_MOTION_DDOT":0},{"OBJECT_NAME":"STARLINK-1291","OBJECT_ID":"2020-019AK","EPOCH":"2022-08-18T15:47:57.087168","MEAN_MOTION":15.0640664,"ECCENTRICITY":0.0001706,"INCLINATION":53.0542,"RA_OF_ASC_NODE":218.1964,"ARG_OF_PERICENTER":74.3012,"MEAN_ANOMALY":285.8165,"EPHEMERIS_TYPE":0,"CLASSIFICATION_TYPE":"U","NORAD_CAT_ID":45393,"ELEMENT_SET_NO":999,"REV_AT_EPOCH":13397,"BSTAR":8.4141e-5,"MEAN_MOTION_DOT":9.72e-6,"MEAN_MOTION_DDOT":0},{"OBJECT_NAME":"STARLINK-1292","OBJECT_ID":"2020-019AL","EPOCH":"2022-08-18T16:30:25.066368","MEAN_MOTION":15.06408234,"ECCENTRICITY":0.0001444,"INCLINATION":53.0547,"RA_OF_ASC_NODE":218.077,"ARG_OF_PERICENTER":76.9666,"MEAN_ANOMALY":283.1484,"EPHEMERIS_TYPE":0,"CLASSIFICATION_TYPE":"U","NORAD_CAT_ID":45394,"ELEMENT_SET_NO":999,"REV_AT_EPOCH":13395,"BSTAR":6.0495e-5,"MEAN_MOTION_DOT":6.2e-6,"MEAN_MOTION_DDOT":0},{"OBJECT_NAME":"STARLINK-1297","OBJECT_ID":"2020-019AM","EPOCH":"2022-08-19T04:21:39.283488","MEAN_MOTION":15.06393942,"ECCENTRICITY":0.0001464,"INCLINATION":53.0524,"RA_OF_ASC_NODE":215.8405,"ARG_OF_PERICENTER":45.7714,"MEAN_ANOMALY":314.3395,"EPHEMERIS_TYPE":0,"CLASSIFICATION_TYPE":"U","NORAD_CAT_ID":45395,"ELEMENT_SET_NO":999,"REV_AT_EPOCH":13405,"BSTAR":6.3153e-5,"MEAN_MOTION_DOT":6.59e-6,"MEAN_MOTION_DDOT":0},{"OBJECT_NAME":"STARLINK-1303","OBJECT_ID":"2020-019AN","EPOCH":"2022-08-18T16:46:20.067168","MEAN_MOTION":15.0640909,"ECCENTRICITY":0.0001631,"INCLINATION":53.0538,"RA_OF_ASC_NODE":218.0089,"ARG_OF_PERICENTER":79.5545,"MEAN_ANOMALY":280.5628,"EPHEMERIS_TYPE":0,"CLASSIFICATION_TYPE":"U","NORAD_CAT_ID":45396,"ELEMENT_SET_NO":999,"REV_AT_EPOCH":13393,"BSTAR":0.00018735,"MEAN_MOTION_DOT":2.511e-5,"MEAN_MOTION_DDOT":0},{"OBJECT_NAME":"STARLINK-1307","OBJECT_ID":"2020-019AP","EPOCH":"2022-08-19T04:11:01.997088","MEAN_MOTION":15.06405595,"ECCENTRICITY":0.0001621,"INCLINATION":53.0538,"RA_OF_ASC_NODE":215.8679,"ARG_OF_PERICENTER":83.527,"MEAN_ANOMALY":276.5904,"EPHEMERIS_TYPE":0,"CLASSIFICATION_TYPE":"U","NORAD_CAT_ID":45397,"ELEMENT_SET_NO":999,"REV_AT_EPOCH":13411,"BSTAR":0.00017639,"MEAN_MOTION_DOT":2.347e-5,"MEAN_MOTION_DDOT":0},{"OBJECT_NAME":"STARLINK-1312","OBJECT_ID":"2020-019AQ","EPOCH":"2022-08-19T05:35:56.766624","MEAN_MOTION":15.06406167,"ECCENTRICITY":0.0001356,"INCLINATION":53.0552,"RA_OF_ASC_NODE":215.6122,"ARG_OF_PERICENTER":84.6369,"MEAN_ANOMALY":275.4775,"EPHEMERIS_TYPE":0,"CLASSIFICATION_TYPE":"U","NORAD_CAT_ID":45398,"ELEMENT_SET_NO":999,"REV_AT_EPOCH":13405,"BSTAR":0.00018444,"MEAN_MOTION_DOT":2.467e-5,"MEAN_MOTION_DDOT":0},{"OBJECT_NAME":"STARLINK-1255","OBJECT_ID":"2020-019AR","EPOCH":"2022-08-19T05:00:07.854336","MEAN_MOTION":15.06403817,"ECCENTRICITY":0.0001742,"INCLINATION":53.0539,"RA_OF_ASC_NODE":205.7145,"ARG_OF_PERICENTER":68.4618,"MEAN_ANOMALY":291.6556,"EPHEMERIS_TYPE":0,"CLASSIFICATION_TYPE":"U","NORAD_CAT_ID":45399,"ELEMENT_SET_NO":999,"REV_AT_EPOCH":13424,"BSTAR":6.4437e-5,"MEAN_MOTION_DOT":6.78e-6,"MEAN_MOTION_DDOT":0},{"OBJECT_NAME":"STARLINK-1213","OBJECT_ID":"2020-019AS","EPOCH":"2022-08-19T05:21:21.512160","MEAN_MOTION":15.06409066,"ECCENTRICITY":0.0001447,"INCLINATION":53.0543,"RA_OF_ASC_NODE":205.6583,"ARG_OF_PERICENTER":72.4297,"MEAN_ANOMALY":287.685,"EPHEMERIS_TYPE":0,"CLASSIFICATION_TYPE":"U","NORAD_CAT_ID":45400,"ELEMENT_SET_NO":999,"REV_AT_EPOCH":13417,"BSTAR":8.8015e-5,"MEAN_MOTION_DOT":1.03e-5,"MEAN_MOTION_DDOT":0},{"OBJECT_NAME":"STARLINK-1256","OBJECT_ID":"2020-019AT","EPOCH":"2022-08-19T05:16:03.791712","MEAN_MOTION":15.06398415,"ECCENTRICITY":0.0001562,"INCLINATION":53.0544,"RA_OF_ASC_NODE":205.6862,"ARG_OF_PERICENTER":63.6037,"MEAN_ANOMALY":296.5112,"EPHEMERIS_TYPE":0,"CLASSIFICATION_TYPE":"U","NORAD_CAT_ID":45401,"ELEMENT_SET_NO":999,"REV_AT_EPOCH":13424,"BSTAR":4.8607e-5,"MEAN_MOTION_DOT":4.43e-6,"MEAN_MOTION_DDOT":0},{"OBJECT_NAME":"STARLINK-1257","OBJECT_ID":"2020-019AU","EPOCH":"2022-08-19T05:09:22.963104","MEAN_MOTION":15.06409798,"ECCENTRICITY":0.000163,"INCLINATION":53.0533,"RA_OF_ASC_NODE":205.6878,"ARG_OF_PERICENTER":70.8532,"MEAN_ANOMALY":289.2633,"EPHEMERIS_TYPE":0,"CLASSIFICATION_TYPE":"U","NORAD_CAT_ID":45402,"ELEMENT_SET_NO":999,"REV_AT_EPOCH":13424,"BSTAR":0.00016357,"MEAN_MOTION_DOT":2.156e-5,"MEAN_MOTION_DDOT":0},{"OBJECT_NAME":"STARLINK-1259","OBJECT_ID":"2020-019AV","EPOCH":"2022-08-19T05:31:58.020960","MEAN_MOTION":15.06403699,"ECCENTRICITY":0.0001561,"INCLINATION":53.0526,"RA_OF_ASC_NODE":205.6228,"ARG_OF_PERICENTER":72.8338,"MEAN_ANOMALY":287.2822,"EPHEMERIS_TYPE":0,"CLASSIFICATION_TYPE":"U","NORAD_CAT_ID":45403,"ELEMENT_SET_NO":999,"REV_AT_EPOCH":13424,"BSTAR":8.7978e-5,"MEAN_MOTION_DOT":1.029e-5,"MEAN_MOTION_DDOT":0},{"OBJECT_NAME":"STARLINK-1260","OBJECT_ID":"2020-019AW","EPOCH":"2022-08-19T04:12:21.773664","MEAN_MOTION":15.06398666,"ECCENTRICITY":0.0001848,"INCLINATION":53.0539,"RA_OF_ASC_NODE":205.8846,"ARG_OF_PERICENTER":70.7837,"MEAN_ANOMALY":289.3352,"EPHEMERIS_TYPE":0,"CLASSIFICATION_TYPE":"U","NORAD_CAT_ID":45404,"ELEMENT_SET_NO":999,"REV_AT_EPOCH":13414,"BSTAR":0.00011681,"MEAN_MOTION_DOT":1.459e-5,"MEAN_MOTION_DDOT":0},{"OBJECT_NAME":"STARLINK-1263","OBJECT_ID":"2020-019AX","EPOCH":"2022-08-18T15:06:49.102272","MEAN_MOTION":15.06398432,"ECCENTRICITY":0.0001514,"INCLINATION":53.0554,"RA_OF_ASC_NODE":208.3351,"ARG_OF_PERICENTER":75.0724,"MEAN_ANOMALY":285.0432,"EPHEMERIS_TYPE":0,"CLASSIFICATION_TYPE":"U","NORAD_CAT_ID":45405,"ELEMENT_SET_NO":999,"REV_AT_EPOCH":13406,"BSTAR":6.7189e-5,"MEAN_MOTION_DOT":7.19e-6,"MEAN_MOTION_DDOT":0},{"OBJECT_NAME":"STARLINK-1265","OBJECT_ID":"2020-019AY","EPOCH":"2022-08-18T15:17:25.557504","MEAN_MOTION":15.06405929,"ECCENTRICITY":0.0001807,"INCLINATION":53.0546,"RA_OF_ASC_NODE":208.2816,"ARG_OF_PERICENTER":68.8042,"MEAN_ANOMALY":291.314,"EPHEMERIS_TYPE":0,"CLASSIFICATION_TYPE":"U","NORAD_CAT_ID":45406,"ELEMENT_SET_NO":999,"REV_AT_EPOCH":13406,"BSTAR":5.413e-5,"MEAN_MOTION_DOT":5.25e-6,"MEAN_MOTION_DDOT":0},{"OBJECT_NAME":"STARLINK-1275","OBJECT_ID":"2020-019AZ","EPOCH":"2022-08-18T07:39:36.499680","MEAN_MOTION":15.06401731,"ECCENTRICITY":0.0001531,"INCLINATION":53.0532,"RA_OF_ASC_NODE":209.7294,"ARG_OF_PERICENTER":74.8723,"MEAN_ANOMALY":285.2435,"EPHEMERIS_TYPE":0,"CLASSIFICATION_TYPE":"U","NORAD_CAT_ID":45407,"ELEMENT_SET_NO":999,"REV_AT_EPOCH":13401,"BSTAR":7.453e-5,"MEAN_MOTION_DOT":8.29e-6,"MEAN_MOTION_DDOT":0}]